OBJECT_NAME,OBJECT_ID,EPOCH,MEAN_MOTION,ECCENTRICITY,INCLINATION,RA_OF_ASC_NODE,ARG_OF_PERICENTER,MEAN_ANOMALY,EPHEMERIS_TYPE,CLASSIFICATION_TYPE,NORAD_CAT_ID,ELEMENT_SET_NO,REV_AT_EPOCH,BSTAR,MEAN_MOTION_DOT,MEAN_MOTION_DDOT
SIRION PATHFINDER-2,2018-099B,2026-05-13T02:17:32.961696,15.14216957,.0010238,97.4282,182.9909,67.3448,292.8865,0,U,43759,999,40731,.18446E-3,.3308E-4,0
CORVUS BC4,2018-099K,2026-05-12T23:43:42.659616,15.12199939,.0009932,97.4099,177.0022,118.5832,241.6399,0,U,43767,999,40708,.17522E-3,.2965E-4,0
M2 PATHFINDER,2020-037E,2026-05-12T23:58:17.483808,15.04519478,.0010104,97.8165,323.8372,272.1142,87.8927,0,U,45727,999,32020,.12229E-3,.165E-4,0
NETSAT-4,2020-068U,2026-05-12T23:32:46.637376,15.42671262,.0007652,97.8617,138.4274,90.4029,269.8094,0,U,46504,999,31034,.26659E-3,.11539E-3,0
NETSAT-3,2020-068V,2026-05-12T23:02:02.793120,15.41441122,.0007544,97.8666,136.6674,103.0433,257.1655,0,U,46505,999,31025,.29386E-3,.12217E-3,0
NETSAT-1,2020-068W,2026-05-12T23:31:27.371424,15.33764147,.0006747,97.8750,131.4260,122.1564,238.0333,0,U,46506,999,30990,.25829E-3,.8352E-4,0
NETSAT-2,2020-068X,2026-05-13T00:01:21.438912,15.44474567,.0006193,97.8632,138.2250,111.1569,249.0340,0,U,46507,999,31030,.31343E-3,.14436E-3,0
GREENCUBE (IO-117),2022-080E,2026-05-12T13:02:43.634112,6.42583333,.0008862,70.1440,310.6463,297.7055,62.2705,0,U,53109,999,8977,0,-.3E-7,0
SITRO-AIS 5 (KATYS),2023-091L,2026-05-13T02:57:09.395424,15.28627904,.0010734,97.5084,196.7085,219.0806,140.9659,0,U,57176,999,15898,.27892E-3,.7702E-4,0
SITRO-AIS 6 (CHIRKIN),2023-091AC,2026-05-13T03:41:48.466752,15.25251850,.0010891,97.5090,196.0403,222.7487,137.2905,0,U,57192,999,15894,.14919E-3,.3682E-4,0
SITRO-AIS 8 (ANOKHIN),2023-091AD,2026-05-13T03:13:18.824160,15.31161376,.0010045,97.5079,198.1705,214.1821,145.8774,0,U,57193,999,15908,.28831E-3,.8613E-4,0
SITRO-AIS 7 (FARTUSHNIY),2023-091AE,2026-05-13T03:36:18.365184,15.24957820,.0010711,97.5088,195.8791,223.9587,136.0799,0,U,57194,999,15893,.14699E-3,.3594E-4,0
SITRO-AIS 10 (BURDAEV),2023-091AK,2026-05-13T04:17:11.270688,15.37256358,.0007065,97.5100,202.9199,185.3411,174.7759,0,U,57199,999,15938,.33548E-3,.12173E-3,0
SITRO-AIS 9 (SHCHUKIN),2023-091AM,2026-05-13T03:06:07.415136,15.36802379,.0007261,97.5098,202.6258,186.2793,173.8361,0,U,57201,999,15936,.35092E-3,.12553E-3,0
SITRO-AIS 12 (SMIRENNIY),2023-091AQ,2026-05-13T03:02:02.713056,15.37087397,.0007074,97.5110,203.0684,180.2682,179.8559,0,U,57204,999,15938,.35624E-3,.12863E-3,0
SITRO-AIS 11 (SHEFFER),2023-091AU,2026-05-13T03:34:45.632928,15.37479322,.0007008,97.5109,203.3170,179.9613,180.1633,0,U,57208,999,15940,.35914E-3,.13134E-3,0
SITRO-AIS 25,2024-039R,2026-05-13T04:46:25.319424,14.93262264,.0147462,95.3921,211.0532,90.5110,271.3014,0,U,59066,999,11950,.22578E-3,.2893E-4,0
SITRO-AIS 26,2024-039S,2026-05-13T04:41:37.311936,14.93065107,.0147794,95.3922,210.9558,91.0441,270.7721,0,U,59067,999,11949,.21588E-3,.2753E-4,0
SITRO-AIS 27,2024-039T,2026-05-13T04:12:46.774368,14.93477067,.0146993,95.3924,211.1974,89.8323,271.9745,0,U,59068,999,11951,.25837E-3,.3331E-4,0
SITRO-AIS 28,2024-039U,2026-05-13T05:17:56.312160,14.93510858,.014679,95.3924,211.2739,89.5442,272.2601,0,U,59071,999,11952,.26853E-3,.3464E-4,0
GRBBETA,2024-128C,2026-05-12T23:23:57.015744,15.06341838,.0045303,61.9907,339.7812,127.3925,233.1305,0,U,60237,999,10096,.19346E-3,.2703E-4,0
OOV-CUBE (TUBSAT-30),2024-128F,2026-05-13T02:53:14.042688,15.02589480,.0048909,61.9950,347.8334,126.1268,234.4365,0,U,60240,999,10084,.12162E-3,.145E-4,0
ROBUSTA-3A (MEDITERRANEE),2024-128J,2026-05-13T03:16:30.367776,15.11107833,.0046005,61.9870,332.1433,121.2475,239.3140,0,U,60243,999,10112,.27835E-3,.4576E-4,0
LASARSAT,2024-247Q,2026-05-13T04:41:55.728960,15.44164427,.0004773,44.9734,98.4968,120.9892,239.1466,0,U,62391,999,7790,.5029E-3,.23285E-3,0
CROCUBE,2024-247T,2026-05-12T23:22:59.376576,15.45744216,.0004405,44.9712,97.5954,122.7338,237.3976,0,U,62394,999,7789,.52422E-3,.25654E-3,0
FORESAIL-1 PRIME,2025-276DS,2026-05-12T22:33:51.200352,15.18368177,.00018,97.4209,206.8634,188.1800,171.9405,0,U,66778,999,2505,.15541E-3,.3126E-4,0
KNACKSAT-2,1998-067XZ,2026-05-12T22:50:03.928704,15.56875611,.0012521,51.6274,111.2743,68.6895,291.5432,0,U,67683,999,1478,.41696E-3,.3026E-3,0
