SIRION PATHFINDER-2     
1 43759U 18099B   26133.09552039  .00003308  00000+0  18446-3 0  9992
2 43759  97.4282 182.9909 0010238  67.3448 292.8865 15.14216957407312
CORVUS BC4              
1 43767U 18099K   26132.98868819  .00002965  00000+0  17522-3 0  9996
2 43767  97.4099 177.0022 0009932 118.5832 241.6399 15.12199939407089
M2 PATHFINDER           
1 45727U 20037E   26132.99881347  .00001650  00000+0  12229-3 0  9990
2 45727  97.8165 323.8372 0010104 272.1142  87.8927 15.04519478320208
NETSAT-4                
1 46504U 20068U   26132.98109534  .00011539  00000+0  26659-3 0  9997
2 46504  97.8617 138.4274 0007652  90.4029 269.8094 15.42671262310347
NETSAT-3                
1 46505U 20068V   26132.95975455  .00012217  00000+0  29386-3 0  9992
2 46505  97.8666 136.6674 0007544 103.0433 257.1655 15.41441122310258
NETSAT-1                
1 46506U 20068W   26132.98017791  .00008352  00000+0  25829-3 0  9999
2 46506  97.8750 131.4260 0006747 122.1564 238.0333 15.33764147309905
NETSAT-2                
1 46507U 20068X   26133.00094258  .00014436  00000+0  31343-3 0  9995
2 46507  97.8632 138.2250 0006193 111.1569 249.0340 15.44474567310309
GREENCUBE (IO-117)      
1 53109U 22080E   26132.54356058 -.00000003  00000+0  00000+0 0  9992
2 53109  70.1440 310.6463 0008862 297.7055  62.2705  6.42583333 89778
SITRO-AIS 5 (KATYS)     
1 57176U 23091L   26133.12302541  .00007702  00000+0  27892-3 0  9990
2 57176  97.5084 196.7085 0010734 219.0806 140.9659 15.28627904158987
SITRO-AIS 6 (CHIRKIN)   
1 57192U 23091AC  26133.15403318  .00003682  00000+0  14919-3 0  9994
2 57192  97.5090 196.0403 0010891 222.7487 137.2905 15.25251850158948
SITRO-AIS 8 (ANOKHIN)   
1 57193U 23091AD  26133.13424565  .00008613  00000+0  28831-3 0  9997
2 57193  97.5079 198.1705 0010045 214.1821 145.8774 15.31161376159087
SITRO-AIS 7 (FARTUSHNIY)
1 57194U 23091AE  26133.15021256  .00003594  00000+0  14699-3 0  9990
2 57194  97.5088 195.8791 0010711 223.9587 136.0799 15.24957820158935
SITRO-AIS 10 (BURDAEV)  
1 57199U 23091AK  26133.17860267  .00012173  00000+0  33548-3 0  9997
2 57199  97.5100 202.9199 0007065 185.3411 174.7759 15.37256358159389
SITRO-AIS 9 (SHCHUKIN)  
1 57201U 23091AM  26133.12925249  .00012553  00000+0  35092-3 0  9996
2 57201  97.5098 202.6258 0007261 186.2793 173.8361 15.36802379159369
SITRO-AIS 12 (SMIRENNIY)
1 57204U 23091AQ  26133.12642029  .00012863  00000+0  35624-3 0  9996
2 57204  97.5110 203.0684 0007074 180.2682 179.8559 15.37087397159381
SITRO-AIS 11 (SHEFFER)  
1 57208U 23091AU  26133.14913927  .00013134  00000+0  35914-3 0  9994
2 57208  97.5109 203.3170 0007008 179.9613 180.1633 15.37479322159406
SITRO-AIS 25            
1 59066U 24039R   26133.19890416  .00002893  00000+0  22578-3 0  9995
2 59066  95.3921 211.0532 0147462  90.5110 271.3014 14.93262264119504
SITRO-AIS 26            
1 59067U 24039S   26133.19557074  .00002753  00000+0  21588-3 0  9991
2 59067  95.3922 210.9558 0147794  91.0441 270.7721 14.93065107119496
SITRO-AIS 27            
1 59068U 24039T   26133.17554137  .00003331  00000+0  25837-3 0  9991
2 59068  95.3924 211.1974 0146993  89.8323 271.9745 14.93477067119512
SITRO-AIS 28            
1 59071U 24039U   26133.22079065  .00003464  00000+0  26853-3 0  9999
2 59071  95.3924 211.2739 0146790  89.5442 272.2601 14.93510858119522
GRBBETA                 
1 60237U 24128C   26132.97496546  .00002703  00000+0  19346-3 0  9996
2 60237  61.9907 339.7812 0045303 127.3925 233.1305 15.06341838100961
OOV-CUBE (TUBSAT-30)    
1 60240U 24128F   26133.12030142  .00001450  00000+0  12162-3 0  9991
2 60240  61.9950 347.8334 0048909 126.1268 234.4365 15.02589480100844
ROBUSTA-3A (MEDITERRAN*)
1 60243U 24128J   26133.13646259  .00004576  00000+0  27835-3 0  9992
2 60243  61.9870 332.1433 0046005 121.2475 239.3140 15.11107833101121
LASARSAT                
1 62391U 24247Q   26133.19578390  .00023285  00000+0  50290-3 0  9995
2 62391  44.9734  98.4968 0004773 120.9892 239.1466 15.44164427 77902
CROCUBE                 
1 62394U 24247T   26132.97429834  .00025654  00000+0  52422-3 0  9992
2 62394  44.9712  97.5954 0004405 122.7338 237.3976 15.45744216 77898
FORESAIL-1 PRIME        
1 66778U 25276DS  26132.94017593  .00003126  00000+0  15541-3 0  9998
2 66778  97.4209 206.8634 0001800 188.1800 171.9405 15.18368177 25057
KNACKSAT-2              
1 67683U 98067XZ  26132.95143436  .00030260  00000+0  41696-3 0  9998
2 67683  51.6274 111.2743 0012521  68.6895 291.5432 15.56875611 14780
